{"type": "FeatureCollection", "features": [ {"type": "Feature", "properties": {"norad_id": 30914, "name": "FENGYUN 1C DEB", "group": "fengyun-1c-debris", "lat": -65.51340529346274, "lon": -95.82595043652606, "alt_km": 908.7578125014243, "timestamp": "2025-12-24T05:51:19.887980+00:00", "meta": {"OBJECT_NAME": "FENGYUN 1C DEB", "OBJECT_ID": "1999-025AZC", "EPOCH": "2025-12-23T09:59:19.017312", "MEAN_MOTION": 13.08882678, "ECCENTRICITY": 0.05169044, "INCLINATION": 99.9832, "RA_OF_ASC_NODE": 240.6486, "ARG_OF_PERICENTER": 330.1456, "MEAN_ANOMALY": 27.1068, "EPHEMERIS_TYPE": 0, "CLASSIFICATION_TYPE": "U", "NORAD_CAT_ID": 30914, "ELEMENT_SET_NO": 999, "REV_AT_EPOCH": 59215, "BSTAR": 0.0026040863, "MEAN_MOTION_DOT": 1.674e-05, "MEAN_MOTION_DDOT": 0}, "tle": {"line1": "1 30914U 99025AZC 25357.41619233  .00001674  00000+0  26041-2 0  9995", "line2": "2 30914  99.9832 240.6486 0516904 330.1456  27.1068 13.08882678592153"}}, "geometry": {"type": "Point", "coordinates": [-95.82595043652606, -65.51340529346274]}}, {"type": "Feature", "properties": {"norad_id": 30915, "name": "FENGYUN 1C DEB", "group": "fengyun-1c-debris", "lat": 40.07767768586222, "lon": -97.75384370236391, "alt_km": 766.7001291897632, "timestamp": "2025-12-24T05:51:19.887992+00:00", "meta": {"OBJECT_NAME": "FENGYUN 1C DEB", "OBJECT_ID": "1999-025AZD", "EPOCH": "2025-12-23T03:55:51.795552", "MEAN_MOTION": 14.25111657, "ECCENTRICITY": 0.005326, "INCLINATION": 98.9411, "RA_OF_ASC_NODE": 73.5339, "ARG_OF_PERICENTER": 139.1471, "MEAN_ANOMALY": 221.3719, "EPHEMERIS_TYPE": 0, "CLASSIFICATION_TYPE": "U", "NORAD_CAT_ID": 30915, "ELEMENT_SET_NO": 999, "REV_AT_EPOCH": 96661, "BSTAR": 0.0015659215, "MEAN_MOTION_DOT": 3.684e-05, "MEAN_MOTION_DDOT": 0}, "tle": {"line1": "1 30915U 99025AZD 25357.16379393  .00003684  00000+0  15659-2 0  9994", "line2": "2 30915  98.9411  73.5339 0053260 139.1471 221.3719 14.25111657966610"}}, "geometry": {"type": "Point", "coordinates": [-97.75384370236391, 40.07767768586222]}}, {"type": "Feature", "properties": {"norad_id": 30916, "name": "FENGYUN 1C DEB", "group": "fengyun-1c-debris", "lat": -51.38328471513681, "lon": -132.87486958300846, "alt_km": 824.6942927960672, "timestamp": "2025-12-24T05:51:19.888002+00:00", "meta": {"OBJECT_NAME": "FENGYUN 1C DEB", "OBJECT_ID": "1999-025AZE", "EPOCH": "2025-12-23T03:19:28.828704", "MEAN_MOTION": 14.08837398, "ECCENTRICITY": 0.00632304, "INCLINATION": 99.001, "RA_OF_ASC_NODE": 57.467, "ARG_OF_PERICENTER": 229.0741, "MEAN_ANOMALY": 159.5004, "EPHEMERIS_TYPE": 0, "CLASSIFICATION_TYPE": "U", "NORAD_CAT_ID": 30916, "ELEMENT_SET_NO": 999, "REV_AT_EPOCH": 95990, "BSTAR": 0.001097525, "MEAN_MOTION_DOT": 1.885e-05, "MEAN_MOTION_DDOT": 0}, "tle": {"line1": "1 30916U 99025AZE 25357.13852811  .00001885  00000+0  10975-2 0  9990", "line2": "2 30916  99.0010  57.4670 0063230 229.0741 159.5004 14.08837398959905"}}, "geometry": {"type": "Point", "coordinates": [-132.87486958300846, -51.38328471513681]}}, {"type": "Feature", "properties": {"norad_id": 30918, "name": "FENGYUN 1C DEB", "group": "fengyun-1c-debris", "lat": -1.9058638510464923, "lon": -70.79466015616937, "alt_km": 902.8244484996831, "timestamp": "2025-12-24T05:51:19.888014+00:00", "meta": {"OBJECT_NAME": "FENGYUN 1C DEB", "OBJECT_ID": "1999-025AZG", "EPOCH": "2025-12-23T19:23:57.178752", "MEAN_MOTION": 13.96854434, "ECCENTRICITY": 0.01571218, "INCLINATION": 98.4166, "RA_OF_ASC_NODE": 109.0886, "ARG_OF_PERICENTER": 94.6413, "MEAN_ANOMALY": 55.6962, "EPHEMERIS_TYPE": 0, "CLASSIFICATION_TYPE": "U", "NORAD_CAT_ID": 30918, "ELEMENT_SET_NO": 999, "REV_AT_EPOCH": 95207, "BSTAR": 0.00069575463, "MEAN_MOTION_DOT": 1.037e-05, "MEAN_MOTION_DDOT": 0}, "tle": {"line1": "1 30918U 99025AZG 25357.80830068  .00001037  00000+0  69575-3 0  9996", "line2": "2 30918  98.4166 109.0886 0157121  94.6413  55.6962 13.96854434952076"}}, "geometry": {"type": "Point", "coordinates": [-70.79466015616937, -1.9058638510464923]}}, {"type": "Feature", "properties": {"norad_id": 30920, "name": "FENGYUN 1C DEB", "group": "fengyun-1c-debris", "lat": -7.501914622569336, "lon": -41.61894867168201, "alt_km": 881.356268284907, "timestamp": "2025-12-24T05:51:19.888038+00:00", "meta": {"OBJECT_NAME": "FENGYUN 1C DEB", "OBJECT_ID": "1999-025AZJ", "EPOCH": "2025-12-23T03:33:33.779232", "MEAN_MOTION": 14.1674921, "ECCENTRICITY": 0.01082214, "INCLINATION": 98.9184, "RA_OF_ASC_NODE": 138.4677, "ARG_OF_PERICENTER": 68.222, "MEAN_ANOMALY": 293.0429, "EPHEMERIS_TYPE": 0, "CLASSIFICATION_TYPE": "U", "NORAD_CAT_ID": 30920, "ELEMENT_SET_NO": 999, "REV_AT_EPOCH": 95241, "BSTAR": 0.0027226281, "MEAN_MOTION_DOT": 5.726e-05, "MEAN_MOTION_DDOT": 0}, "tle": {"line1": "1 30920U 99025AZJ 25357.14830763  .00005726  00000+0  27226-2 0  9993", "line2": "2 30920  98.9184 138.4677 0108221  68.2220 293.0429 14.16749210952410"}}, "geometry": {"type": "Point", "coordinates": [-41.61894867168201, -7.501914622569336]}}, {"type": "Feature", "properties": {"norad_id": 30921, "name": "FENGYUN 1C DEB", "group": "fengyun-1c-debris", "lat": 18.047279587735403, "lon": 83.0490296605823, "alt_km": 771.4212869244366, "timestamp": "2025-12-24T05:51:19.888051+00:00", "meta": {"OBJECT_NAME": "FENGYUN 1C DEB", "OBJECT_ID": "1999-025AZK", "EPOCH": "2025-12-23T23:53:12.598944", "MEAN_MOTION": 14.3282873, "ECCENTRICITY": 0.00163551, "INCLINATION": 98.8421, "RA_OF_ASC_NODE": 85.7026, "ARG_OF_PERICENTER": 1.6855, "MEAN_ANOMALY": 174.5503, "EPHEMERIS_TYPE": 0, "CLASSIFICATION_TYPE": "U", "NORAD_CAT_ID": 30921, "ELEMENT_SET_NO": 999, "REV_AT_EPOCH": 96985, "BSTAR": 0.0017115401, "MEAN_MOTION_DOT": 4.632e-05, "MEAN_MOTION_DDOT": 0}, "tle": {"line1": "1 30921U 99025AZK 25357.99528471  .00004632  00000+0  17115-2 0  9998", "line2": "2 30921  98.8421  85.7026 0016355   1.6855 174.5503 14.32828730969852"}}, "geometry": {"type": "Point", "coordinates": [83.0490296605823, 18.047279587735403]}}, {"type": "Feature", "properties": {"norad_id": 30922, "name": "FENGYUN 1C DEB", "group": "fengyun-1c-debris", "lat": 49.63955601804973, "lon": 3.463956395215498, "alt_km": 820.3421531653412, "timestamp": "2025-12-24T05:51:19.888061+00:00", "meta": {"OBJECT_NAME": "FENGYUN 1C DEB", "OBJECT_ID": "1999-025AZL", "EPOCH": "2025-12-23T07:55:24.083904", "MEAN_MOTION": 14.17484689, "ECCENTRICITY": 0.00141688, "INCLINATION": 98.6395, "RA_OF_ASC_NODE": 12.8809, "ARG_OF_PERICENTER": 24.3918, "MEAN_ANOMALY": 45.3665, "EPHEMERIS_TYPE": 0, "CLASSIFICATION_TYPE": "U", "NORAD_CAT_ID": 30922, "ELEMENT_SET_NO": 999, "REV_AT_EPOCH": 96714, "BSTAR": 0.00055607361, "MEAN_MOTION_DOT": 1.086e-05, "MEAN_MOTION_DDOT": 0}, "tle": {"line1": "1 30922U 99025AZL 25357.33013986  .00001086  00000+0  55607-3 0  9996", "line2": "2 30922  98.6395  12.8809 0014168  24.3918  45.3665 14.17484689967141"}}, "geometry": {"type": "Point", "coordinates": [3.463956395215498, 49.63955601804973]}}, {"type": "Feature", "properties": {"norad_id": 30925, "name": "FENGYUN 1C DEB", "group": "fengyun-1c-debris", "lat": 18.56125945790804, "lon": -46.47748191714887, "alt_km": 730.416617610148, "timestamp": "2025-12-24T05:51:19.888072+00:00", "meta": {"OBJECT_NAME": "FENGYUN 1C DEB", "OBJECT_ID": "1999-025AZP", "EPOCH": "2025-12-22T20:32:10.862592", "MEAN_MOTION": 14.43273583, "ECCENTRICITY": 0.00333507, "INCLINATION": 98.8822, "RA_OF_ASC_NODE": 129.0657, "ARG_OF_PERICENTER": 208.088, "MEAN_ANOMALY": 304.038, "EPHEMERIS_TYPE": 0, "CLASSIFICATION_TYPE": "U", "NORAD_CAT_ID": 30925, "ELEMENT_SET_NO": 999, "REV_AT_EPOCH": 97218, "BSTAR": 0.0025124949, "MEAN_MOTION_DOT": 8.479e-05, "MEAN_MOTION_DDOT": 0}, "tle": {"line1": "1 30925U 99025AZP 25356.85568128  .00008479  00000+0  25125-2 0  9992", "line2": "2 30925  98.8822 129.0657 0033350 208.0880 304.0380 14.43273583972183"}}, "geometry": {"type": "Point", "coordinates": [-46.47748191714887, 18.56125945790804]}}, {"type": "Feature", "properties": {"norad_id": 30926, "name": "FENGYUN 1C DEB", "group": "fengyun-1c-debris", "lat": 61.22867414593678, "lon": -76.12115933551564, "alt_km": 567.1262647555304, "timestamp": "2025-12-24T05:51:19.888082+00:00", "meta": {"OBJECT_NAME": "FENGYUN 1C DEB", "OBJECT_ID": "1999-025AZQ", "EPOCH": "2025-12-23T02:10:27.708672", "MEAN_MOTION": 14.89492168, "ECCENTRICITY": 0.01647297, "INCLINATION": 98.8045, "RA_OF_ASC_NODE": 298.9913, "ARG_OF_PERICENTER": 348.5959, "MEAN_ANOMALY": 11.154, "EPHEMERIS_TYPE": 0, "CLASSIFICATION_TYPE": "U", "NORAD_CAT_ID": 30926, "ELEMENT_SET_NO": 999, "REV_AT_EPOCH": 921, "BSTAR": 0.00063851636, "MEAN_MOTION_DOT": 7.778e-05, "MEAN_MOTION_DDOT": 0}, "tle": {"line1": "1 30926U 99025AZQ 25357.09059848  .00007778  00000+0  63852-3 0  9995", "line2": "2 30926  98.8045 298.9913 0164729 348.5959  11.1540 14.89492168  9215"}}, "geometry": {"type": "Point", "coordinates": [-76.12115933551564, 61.22867414593678]}}, {"type": "Feature", "properties": {"norad_id": 30927, "name": "FENGYUN 1C DEB", "group": "fengyun-1c-debris", "lat": 7.883690351372403, "lon": -119.78587210726133, "alt_km": 931.8907640394309, "timestamp": "2025-12-24T05:51:19.888092+00:00", "meta": {"OBJECT_NAME": "FENGYUN 1C DEB", "OBJECT_ID": "1999-025AZR", "EPOCH": "2025-12-22T10:25:58.555200", "MEAN_MOTION": 14.09031163, "ECCENTRICITY": 0.00982908, "INCLINATION": 99.1819, "RA_OF_ASC_NODE": 57.0879, "ARG_OF_PERICENTER": 338.4603, "MEAN_ANOMALY": 21.2444, "EPHEMERIS_TYPE": 0, "CLASSIFICATION_TYPE": "U", "NORAD_CAT_ID": 30927, "ELEMENT_SET_NO": 999, "REV_AT_EPOCH": 95820, "BSTAR": 0.001534295, "MEAN_MOTION_DOT": 2.734e-05, "MEAN_MOTION_DDOT": 0}, "tle": {"line1": "1 30927U 99025AZR 25356.43470550  .00002734  00000+0  15343-2 0  9998", "line2": "2 30927  99.1819  57.0879 0098290 338.4603  21.2444 14.09031163958200"}}, "geometry": {"type": "Point", "coordinates": [-119.78587210726133, 7.883690351372403]}}]}